HIMAWARI-8              
1 40267U 14060A   23359.92024113 -.00000266  00000+0  00000+0 0  9997
2 40267   0.0391 235.3962 0001136  51.2803 279.4169  1.00272581 33699
